STARLINK-31596          
1 59336U 24057S   26068.30544416 -.00001087  00000+0 -29996-4 0  9999
2 59336  43.0001 188.9568 0000797 268.4279  91.6481 15.27578435109783
FLOCK 4G-14             
1 62667U 25009BL  26068.75869712  .00011310  00000+0  42676-3 0  9993
2 62667  97.4064 151.1836 0003006 318.3639  41.7371 15.27197201 63711
