[{"OBJECT_NAME":"STARLINK-31596","OBJECT_ID":"2024-057S","EPOCH":"2026-03-09T07:19:50.375424","MEAN_MOTION":15.27578435,"ECCENTRICITY":7.975e-5,"INCLINATION":43.0001,"RA_OF_ASC_NODE":188.9568,"ARG_OF_PERICENTER":268.4279,"MEAN_ANOMALY":91.6481,"EPHEMERIS_TYPE":0,"CLASSIFICATION_TYPE":"U","NORAD_CAT_ID":59336,"ELEMENT_SET_NO":999,"REV_AT_EPOCH":10978,"BSTAR":-2.9995755e-5,"MEAN_MOTION_DOT":-1.087e-5,"MEAN_MOTION_DDOT":0},{"OBJECT_NAME":"FLOCK 4G-14","OBJECT_ID":"2025-009BL","EPOCH":"2026-03-09T18:12:31.432032","MEAN_MOTION":15.27197201,"ECCENTRICITY":0.00030064,"INCLINATION":97.4064,"RA_OF_ASC_NODE":151.1836,"ARG_OF_PERICENTER":318.3639,"MEAN_ANOMALY":41.7371,"EPHEMERIS_TYPE":0,"CLASSIFICATION_TYPE":"U","NORAD_CAT_ID":62667,"ELEMENT_SET_NO":999,"REV_AT_EPOCH":6371,"BSTAR":0.00042675627,"MEAN_MOTION_DOT":0.0001131,"MEAN_MOTION_DDOT":0}]
